*******************************************************************************
 Revised: Sep 28, 2012                 Mars                             499 / 4
 
 GEOPHYSICAL DATA (updated 2009-May-26):
  Mean radius (km)      = 3389.9(2+-4)    Density (g cm^-3)     =  3.933(5+-4)
  Mass (10^23 kg )      =    6.4185       Flattening, f         =  1/154.409
  Volume (x10^10 km^3)  =   16.318        Semi-major axis       =  3397+-4
  Sidereal rot. period  =   24.622962 hr  Rot. Rate (x10^5 s)   =  7.088218
  Mean solar day        =    1.0274907 d  Polar gravity ms^-2   =  3.758
  Mom. of Inertia       =    0.366        Equ. gravity  ms^-2   =  3.71
  Core radius (km)      =  ~1700          Potential Love # k2   =  0.153 +-.017
 
  Grav spectral fact u  =   14 (x10^5)    Topo. spectral fact t = 96 (x10^5)
  Fig. offset (Rcf-Rcm) = 2.50+-0.07 km   Offset (lat./long.)   = 62d / 88d
  GM (km^3 s^-2)        = 42828.3         Equatorial Radius, Re = 3394.0 km 
  GM 1-sigma (km^3 s^-2)= +- 0.1          Mass ratio (Sun/Mars) = 3098708+-9
  
  Atmos. pressure (bar) =    0.0056       Max. angular diam.    =  17.9"
  Mean Temperature (K)  =  210            Visual mag. V(1,0)    =  -1.52
  Geometric albedo      =    0.150        Obliquity to orbit    =  25.19 deg
  Mean sidereal orb per =    1.88081578 y Orbit vel.  km/s      =  24.1309
  Mean sidereal orb per =  686.98 d       Escape vel. km/s      =   5.027
  Hill's sphere rad. Rp =  319.8          Mag. mom (gauss Rp^3) = < 1x10^-4 
*******************************************************************************
 
 
*******************************************************************************
Ephemeris / WWW_USER Tue Jun 20 14:37:41 2017 Pasadena, USA      / Horizons    
*******************************************************************************
Target body name: Mars (499)                      {source: mar097}
Center body name: Sun (10)                        {source: mar097}
Center-site name: BODY CENTER
*******************************************************************************
Start time      : A.D. 2017-Jun-19 00:00:00.0000 TDB
Stop  time      : A.D. 2030-Jun-19 00:00:00.0000 TDB
Step-size       : 1440 minutes
*******************************************************************************
Center geodetic : 0.00000000,0.00000000,0.0000000 {E-lon(deg),Lat(deg),Alt(km)}
Center cylindric: 0.00000000,0.00000000,0.0000000 {E-lon(deg),Dxy(km),Dz(km)}
Center radii    : 696000.0 x 696000.0 x 696000.0 k{Equator, meridian, pole}    
Output units    : KM-S                                                         
Output type     : GEOMETRIC cartesian states
Output format   : 1 (position only)
Reference frame : ICRF/J2000.0                                                 
Coordinate systm: Ecliptic and Mean Equinox of Reference Epoch                 
*******************************************************************************
            JDTDB,            Calendar Date (TDB),                      X,                      Y,                      Z,
**************************************************************************************************************************
$$SOE
2459489.500000000, A.D. 2021-Oct-02 00:00:00.0000, -2.390753120851007E+08, -5.083797024861518E+07,  4.799038638433561E+06,
2459490.500000000, A.D. 2021-Oct-03 00:00:00.0000, -2.385539550847031E+08, -5.270503338180325E+07,  4.747120784739591E+06,
2459491.500000000, A.D. 2021-Oct-04 00:00:00.0000, -2.380164004645960E+08, -5.456851704787733E+07,  4.694880615337962E+06,
2459492.500000000, A.D. 2021-Oct-05 00:00:00.0000, -2.374626616528196E+08, -5.642828942959811E+07,  4.642321222452583E+06,
2459493.500000000, A.D. 2021-Oct-06 00:00:00.0000, -2.368927529924484E+08, -5.828421853262411E+07,  4.589445724365070E+06,
2459494.500000000, A.D. 2021-Oct-07 00:00:00.0000, -2.363066897471519E+08, -6.013617218869404E+07,  4.536257265524443E+06,
2459495.500000000, A.D. 2021-Oct-08 00:00:00.0000, -2.357044881067762E+08, -6.198401805872744E+07,  4.482759016660172E+06,
2459496.500000000, A.D. 2021-Oct-09 00:00:00.0000, -2.350861651928555E+08, -6.382762363607205E+07,  4.428954174837291E+06,
2459497.500000000, A.D. 2021-Oct-10 00:00:00.0000, -2.344517390641417E+08, -6.566685625004891E+07,  4.374845963479165E+06,
2459498.500000000, A.D. 2021-Oct-11 00:00:00.0000, -2.338012287222769E+08, -6.750158306963697E+07,  4.320437632425211E+06,
2459499.500000000, A.D. 2021-Oct-12 00:00:00.0000, -2.331346541175734E+08, -6.933167110705297E+07,  4.265732458027378E+06,
2459500.500000000, A.D. 2021-Oct-13 00:00:00.0000, -2.324520361547477E+08, -7.115698722122401E+07,  4.210733743215747E+06,
2459501.500000000, A.D. 2021-Oct-14 00:00:00.0000, -2.317533966985962E+08, -7.297739812135939E+07,  4.155444817508861E+06,
2459502.500000000, A.D. 2021-Oct-15 00:00:00.0000, -2.310387585798120E+08, -7.479277037074003E+07,  4.099869037046138E+06,
2459503.500000000, A.D. 2021-Oct-16 00:00:00.0000, -2.303081456010831E+08, -7.660297039062850E+07,  4.044009784711804E+06,
2459504.500000000, A.D. 2021-Oct-17 00:00:00.0000, -2.295615825433428E+08, -7.840786446416686E+07,  3.987870470297631E+06,
2459505.500000000, A.D. 2021-Oct-18 00:00:00.0000, -2.287990951719483E+08, -8.020731874030276E+07,  3.931454530595846E+06,
2459506.500000000, A.D. 2021-Oct-19 00:00:00.0000, -2.280207102427968E+08, -8.200119923790987E+07,  3.874765429412436E+06,
2459507.500000000, A.D. 2021-Oct-20 00:00:00.0000, -2.272264555085953E+08, -8.378937185015431E+07,  3.817806657595482E+06,
2459508.500000000, A.D. 2021-Oct-21 00:00:00.0000, -2.264163597253813E+08, -8.557170234895578E+07,  3.760581733140726E+06,
2459509.500000000, A.D. 2021-Oct-22 00:00:00.0000, -2.255904526591668E+08, -8.734805638941866E+07,  3.703094201332349E+06,
2459510.500000000, A.D. 2021-Oct-23 00:00:00.0000, -2.247487650925437E+08, -8.911829951437797E+07,  3.645347634840485E+06,
2459511.500000000, A.D. 2021-Oct-24 00:00:00.0000, -2.238913288312618E+08, -9.088229715930822E+07,  3.587345633767478E+06,
2459512.500000000, A.D. 2021-Oct-25 00:00:00.0000, -2.230181767108951E+08, -9.263991465759179E+07,  3.529091825699072E+06,
2459513.500000000, A.D. 2021-Oct-26 00:00:00.0000, -2.221293426036047E+08, -9.439101724588369E+07,  3.470589865791403E+06,
2459514.500000000, A.D. 2021-Oct-27 00:00:00.0000, -2.212248614248539E+08, -9.613547006941923E+07,  3.411843436844911E+06,
2459515.500000000, A.D. 2021-Oct-28 00:00:00.0000, -2.203047691399632E+08, -9.787313818739563E+07,  3.352856249308344E+06,
2459516.500000000, A.D. 2021-Oct-29 00:00:00.0000, -2.193691027706254E+08, -9.960388657860522E+07,  3.293632041250952E+06,
2459517.500000000, A.D. 2021-Oct-30 00:00:00.0000, -2.184179004015792E+08, -1.013275801472854E+08,  3.234174578396983E+06,
2459518.500000000, A.D. 2021-Oct-31 00:00:00.0000, -2.174512011874500E+08, -1.030440837290185E+08,  3.174487654236570E+06,
2459519.500000000, A.D. 2021-Nov-01 00:00:00.0000, -2.164690453595331E+08, -1.047532620966431E+08,  3.114575090110779E+06,
2459520.500000000, A.D. 2021-Nov-02 00:00:00.0000, -2.154714742323897E+08, -1.064549799663085E+08,  3.054440735198125E+06,
2459521.500000000, A.D. 2021-Nov-03 00:00:00.0000, -2.144585302104055E+08, -1.081491020037760E+08,  2.994088466460206E+06,
2459522.500000000, A.D. 2021-Nov-04 00:00:00.0000, -2.134302567945178E+08, -1.098354928308634E+08,  2.933522188646443E+06,
2459523.500000000, A.D. 2021-Nov-05 00:00:00.0000, -2.123866985890824E+08, -1.115140170318483E+08,  2.872745834362254E+06,
2459524.500000000, A.D. 2021-Nov-06 00:00:00.0000, -2.113279013087143E+08, -1.131845391598408E+08,  2.811763364124350E+06,
2459525.500000000, A.D. 2021-Nov-07 00:00:00.0000, -2.102539117850621E+08, -1.148469237433622E+08,  2.750578766365767E+06,
2459526.500000000, A.D. 2021-Nov-08 00:00:00.0000, -2.091647779736444E+08, -1.165010352932884E+08,  2.689196057434581E+06,
2459527.500000000, A.D. 2021-Nov-09 00:00:00.0000, -2.080605489608270E+08, -1.181467383100072E+08,  2.627619281634517E+06,
2459528.500000000, A.D. 2021-Nov-10 00:00:00.0000, -2.069412749708440E+08, -1.197838972905502E+08,  2.565852511282362E+06,
2459529.500000000, A.D. 2021-Nov-11 00:00:00.0000, -2.058070073727068E+08, -1.214123767357209E+08,  2.503899846713774E+06,
2459530.500000000, A.D. 2021-Nov-12 00:00:00.0000, -2.046577986870216E+08, -1.230320411574312E+08,  2.441765416230313E+06,
2459531.500000000, A.D. 2021-Nov-13 00:00:00.0000, -2.034937025929084E+08, -1.246427550863312E+08,  2.379453376070239E+06,
2459532.500000000, A.D. 2021-Nov-14 00:00:00.0000, -2.023147739351346E+08, -1.262443830795886E+08,  2.316967910467759E+06,
2459533.500000000, A.D. 2021-Nov-15 00:00:00.0000, -2.011210687313205E+08, -1.278367897287126E+08,  2.254313231746137E+06,
2459534.500000000, A.D. 2021-Nov-16 00:00:00.0000, -1.999126441789937E+08, -1.294198396675208E+08,  2.191493580334812E+06,
2459535.500000000, A.D. 2021-Nov-17 00:00:00.0000, -1.986895586624998E+08, -1.309933975804022E+08,  2.128513224701710E+06,
2459536.500000000, A.D. 2021-Nov-18 00:00:00.0000, -1.974518717599766E+08, -1.325573282108517E+08,  2.065376461298272E+06,
2459537.500000000, A.D. 2021-Nov-19 00:00:00.0000, -1.961996442504808E+08, -1.341114963700822E+08,  2.002087614575766E+06,
2459538.500000000, A.D. 2021-Nov-20 00:00:00.0000, -1.949329381211244E+08, -1.356557669456124E+08,  1.938651037018977E+06,
2459539.500000000, A.D. 2021-Nov-21 00:00:00.0000, -1.936518165740936E+08, -1.371900049099812E+08,  1.875071109129742E+06,
2459540.500000000, A.D. 2021-Nov-22 00:00:00.0000, -1.923563440336370E+08, -1.387140753298199E+08,  1.811352239380777E+06,
2459541.500000000, A.D. 2021-Nov-23 00:00:00.0000, -1.910465861531606E+08, -1.402278433752798E+08,  1.747498864203043E+06,
2459542.500000000, A.D. 2021-Nov-24 00:00:00.0000, -1.897226098223933E+08, -1.417311743295794E+08,  1.683515448008657E+06,
